start=new Date('2022-12-11T00:00:00.000Z').valueOf();
sats=[{"TLE_LINE1":"1 48020U 21024AV  22344.80453370 -.00002110  00000-0 -12282-3 0  9992","PERIOD":"95.593","ARG_OF_PERICENTER":"55.0555","ECCENTRICITY":"0.00016850","MEAN_ELEMENT_THEORY":"SGP4","FILE":"3688965","NORAD_CAT_ID":"48020","MEAN_MOTION_DOT":"-0.00002110","REV_AT_EPOCH":"9688","MEAN_ANOMALY":"305.0592","PERIAPSIS":"546.084","REF_FRAME":"TEME","RA_OF_ASC_NODE":"186.1845","MEAN_MOTION":"15.06387927","SEMIMAJOR_AXIS":"6925.386","LAUNCH_DATE":"2021-03-24","TIME_SYSTEM":"UTC","DECAY_DATE":null,"INCLINATION":"53.0528","CLASSIFICATION_TYPE":"U","BSTAR":"-0.00012282000000","GP_ID":"219975013","CENTER_NAME":"EARTH","EPHEMERIS_TYPE":"0","OBJECT_TYPE":"PAYLOAD","RCS_SIZE":"LARGE","APOAPSIS":"548.417","MEAN_MOTION_DDOT":"0.0000000000000","ELEMENT_SET_NO":"999","EPOCH":"2022-12-10T19:18:31.711680","COUNTRY_CODE":"US","SITE":"AFETR","OBJECT_NAME":"STARLINK-2294","OBJECT_ID":"2021-024AV","TLE_LINE2":"2 48020  53.0528 186.1845 0001685  55.0555 305.0592 15.06387927 96880"},{"TLE_LINE2":"2 48021  53.0523 190.7277 0001722  50.4247 309.6894 15.06379221 96833","OBJECT_ID":"2021-024AW","OBJECT_NAME":"STARLINK-2301","SITE":"AFETR","EPOCH":"2022-12-10T19:36:22.567968","COUNTRY_CODE":"US","MEAN_MOTION_DDOT":"0.0000000000000","APOAPSIS":"548.470","ELEMENT_SET_NO":"999","RCS_SIZE":"LARGE","OBJECT_TYPE":"PAYLOAD","EPHEMERIS_TYPE":"0","CENTER_NAME":"EARTH","INCLINATION":"53.0523","DECAY_DATE":null,"GP_ID":"219975263","BSTAR":"-0.00006148800000","CLASSIFICATION_TYPE":"U","LAUNCH_DATE":"2021-03-24","SEMIMAJOR_AXIS":"6925.412","TIME_SYSTEM":"UTC","MEAN_MOTION":"15.06379221","RA_OF_ASC_NODE":"190.7277","REF_FRAME":"TEME","REV_AT_EPOCH":"9683","MEAN_ANOMALY":"309.6894","PERIAPSIS":"546.085","NORAD_CAT_ID":"48021","FILE":"3688965","MEAN_MOTION_DOT":"-0.00001197","MEAN_ELEMENT_THEORY":"SGP4","ECCENTRICITY":"0.00017220","PERIOD":"95.593","TLE_LINE1":"1 48021U 21024AW  22344.81692787 -.00001197  00000-0 -61488-4 0  9998","ARG_OF_PERICENTER":"50.4247"},{"GP_ID":"219932428","BSTAR":"0.00004843500000","CLASSIFICATION_TYPE":"U","INCLINATION":"53.0538","DECAY_DATE":null,"MEAN_MOTION":"15.06387452","RA_OF_ASC_NODE":"254.7505","REF_FRAME":"TEME","TIME_SYSTEM":"UTC","LAUNCH_DATE":"2021-03-24","SEMIMAJOR_AXIS":"6925.387","FILE":"3688140","NORAD_CAT_ID":"48022","MEAN_MOTION_DOT":"0.00000440","MEAN_ELEMENT_THEORY":"SGP4","MEAN_ANOMALY":"287.7686","PERIAPSIS":"546.197","REV_AT_EPOCH":"9591","ARG_OF_PERICENTER":"72.3469","PERIOD":"95.593","TLE_LINE1":"1 48022U 21024AX  22343.98207217  .00000440  00000-0  48435-4 0  9991","ECCENTRICITY":"0.00015240","OBJECT_ID":"2021-024AX","SITE":"AFETR","OBJECT_NAME":"STARLINK-2298","TLE_LINE2":"2 48022  53.0538 254.7505 0001524  72.3469 287.7686 15.06387452 95912","ELEMENT_SET_NO":"999","MEAN_MOTION_DDOT":"0.0000000000000","APOAPSIS":"548.307","COUNTRY_CODE":"US","EPOCH":"2022-12-09T23:34:11.035488","OBJECT_TYPE":"PAYLOAD","RCS_SIZE":"LARGE","CENTER_NAME":"EARTH","EPHEMERIS_TYPE":"0"},{"RCS_SIZE":"LARGE","OBJECT_TYPE":"PAYLOAD","EPHEMERIS_TYPE":"0","CENTER_NAME":"EARTH","TLE_LINE2":"2 48023  53.0541 253.6328 0001415  63.9527 296.1608 15.06378016 95945","OBJECT_ID":"2021-024AY","SITE":"AFETR","OBJECT_NAME":"STARLINK-2292","EPOCH":"2022-12-10T04:04:51.189024","COUNTRY_CODE":"US","MEAN_MOTION_DDOT":"0.0000000000000","APOAPSIS":"548.261","ELEMENT_SET_NO":"999","REV_AT_EPOCH":"9594","PERIAPSIS":"546.301","MEAN_ANOMALY":"296.1608","FILE":"3688140","NORAD_CAT_ID":"48023","MEAN_MOTION_DOT":"-0.00004224","MEAN_ELEMENT_THEORY":"SGP4","ECCENTRICITY":"0.00014150","TLE_LINE1":"1 48023U 21024AY  22344.17003691 -.00004224  00000-0 -26498-3 0  9994","PERIOD":"95.594","ARG_OF_PERICENTER":"63.9527","INCLINATION":"53.0541","DECAY_DATE":null,"GP_ID":"219931179","CLASSIFICATION_TYPE":"U","BSTAR":"-0.00026498000000","LAUNCH_DATE":"2021-03-24","SEMIMAJOR_AXIS":"6925.416","TIME_SYSTEM":"UTC","RA_OF_ASC_NODE":"253.6328","MEAN_MOTION":"15.06378016","REF_FRAME":"TEME"},{"TLE_LINE2":"2 48026  53.0553 258.7209 0001232  87.2641 272.8488 15.06374557 95817","OBJECT_ID":"2021-024BB","SITE":"AFETR","OBJECT_NAME":"STARLINK-2278","EPOCH":"2022-12-10T03:34:58.679328","COUNTRY_CODE":"US","MEAN_MOTION_DDOT":"0.0000000000000","APOAPSIS":"548.145","ELEMENT_SET_NO":"999","RCS_SIZE":"LARGE","OBJECT_TYPE":"PAYLOAD","EPHEMERIS_TYPE":"0","CENTER_NAME":"EARTH","INCLINATION":"53.0553","DECAY_DATE":null,"GP_ID":"219931929","CLASSIFICATION_TYPE":"U","BSTAR":"-0.00053997000000","LAUNCH_DATE":"2021-03-24","SEMIMAJOR_AXIS":"6925.427","TIME_SYSTEM":"UTC","MEAN_MOTION":"15.06374557","RA_OF_ASC_NODE":"258.7209","REF_FRAME":"TEME","REV_AT_EPOCH":"9581","PERIAPSIS":"546.438","MEAN_ANOMALY":"272.8488","FILE":"3688140","NORAD_CAT_ID":"48026","MEAN_MOTION_DOT":"-0.00008309","MEAN_ELEMENT_THEORY":"SGP4","ECCENTRICITY":"0.00012320","PERIOD":"95.594","TLE_LINE1":"1 48026U 21024BB  22344.14929027 -.00008309  00000-0 -53997-3 0  9996","ARG_OF_PERICENTER":"87.2641"},{"ARG_OF_PERICENTER":"79.0834","PERIOD":"95.593","TLE_LINE1":"1 48027U 21024BC  22344.83902588 -.00000742  00000-0 -30945-4 0  9998","ECCENTRICITY":"0.00012670","MEAN_MOTION_DOT":"-0.00000742","FILE":"3688965","NORAD_CAT_ID":"48027","MEAN_ELEMENT_THEORY":"SGP4","PERIAPSIS":"546.362","MEAN_ANOMALY":"281.0298","REV_AT_EPOCH":"9626","RA_OF_ASC_NODE":"230.6168","MEAN_MOTION":"15.06391443","REF_FRAME":"TEME","TIME_SYSTEM":"UTC","LAUNCH_DATE":"2021-03-24","SEMIMAJOR_AXIS":"6925.375","GP_ID":"219975764","BSTAR":"-0.00003094500000","CLASSIFICATION_TYPE":"U","INCLINATION":"53.0536","DECAY_DATE":null,"CENTER_NAME":"EARTH","EPHEMERIS_TYPE":"0","OBJECT_TYPE":"PAYLOAD","RCS_SIZE":"LARGE","ELEMENT_SET_NO":"999","MEAN_MOTION_DDOT":"0.0000000000000","APOAPSIS":"548.117","COUNTRY_CODE":"US","EPOCH":"2022-12-10T20:08:11.836032","OBJECT_ID":"2021-024BC","OBJECT_NAME":"STARLINK-2300","SITE":"AFETR","TLE_LINE2":"2 48027  53.0536 230.6168 0001267  79.0834 281.0298 15.06391443 96267"},{"EPHEMERIS_TYPE":"0","CENTER_NAME":"EARTH","RCS_SIZE":"LARGE","OBJECT_TYPE":"PAYLOAD","COUNTRY_CODE":"US","EPOCH":"2022-12-10T19:45:04.069728","ELEMENT_SET_NO":"999","MEAN_MOTION_DDOT":"0.0000000000000","APOAPSIS":"548.667","TLE_LINE2":"2 48028  53.0523 186.0959 0002073  54.5201 305.5981 15.06394211 96940","OBJECT_ID":"2021-024BD","SITE":"AFETR","OBJECT_NAME":"STARLINK-2264","ECCENTRICITY":"0.00020730","ARG_OF_PERICENTER":"54.5201","PERIOD":"95.593","TLE_LINE1":"1 48028U 21024BD  22344.82296377 -.00001470  00000-0 -79833-4 0  9998","PERIAPSIS":"545.796","MEAN_ANOMALY":"305.5981","REV_AT_EPOCH":"9694","FILE":"3688965","MEAN_MOTION_DOT":"-0.00001470","NORAD_CAT_ID":"48028","MEAN_ELEMENT_THEORY":"SGP4","TIME_SYSTEM":"UTC","LAUNCH_DATE":"2021-03-24","SEMIMAJOR_AXIS":"6925.366","RA_OF_ASC_NODE":"186.0959","MEAN_MOTION":"15.06394211","REF_FRAME":"TEME","GP_ID":"219976015","BSTAR":"-0.00007983300000","CLASSIFICATION_TYPE":"U","INCLINATION":"53.0523","DECAY_DATE":null},{"REV_AT_EPOCH":"9604","MEAN_ANOMALY":"295.2139","PERIAPSIS":"546.115","FILE":"3688965","NORAD_CAT_ID":"48029","MEAN_MOTION_DOT":"0.00008115","MEAN_ELEMENT_THEORY":"SGP4","ECCENTRICITY":"0.00016520","TLE_LINE1":"1 48029U 21024BE  22344.81139636  .00008115  00000-0  56326-3 0  9994","PERIOD":"95.593","ARG_OF_PERICENTER":"64.9021","INCLINATION":"53.0524","DECAY_DATE":null,"GP_ID":"219976266","BSTAR":"0.00056326000000","CLASSIFICATION_TYPE":"U","LAUNCH_DATE":"2021-03-24","SEMIMAJOR_AXIS":"6925.394","TIME_SYSTEM":"UTC","RA_OF_ASC_NODE":"250.7356","MEAN_MOTION":"15.06385236","REF_FRAME":"TEME","RCS_SIZE":"LARGE","OBJECT_TYPE":"PAYLOAD","EPHEMERIS_TYPE":"0","CENTER_NAME":"EARTH","TLE_LINE2":"2 48029  53.0524 250.7356 0001652  64.9021 295.2139 15.06385236 96047","OBJECT_ID":"2021-024BE","OBJECT_NAME":"STARLINK-2299","SITE":"AFETR","EPOCH":"2022-12-10T19:28:24.645504","COUNTRY_CODE":"US","MEAN_MOTION_DDOT":"0.0000000000000","APOAPSIS":"548.403","ELEMENT_SET_NO":"999"},{"RCS_SIZE":"LARGE","OBJECT_TYPE":"PAYLOAD","EPHEMERIS_TYPE":"0","CENTER_NAME":"EARTH","TLE_LINE2":"2 48030  53.0554 258.3134 0001531  55.5624 304.5509 15.06390679 95828","OBJECT_NAME":"STARLINK-2268","SITE":"AFETR","OBJECT_ID":"2021-024BF","COUNTRY_CODE":"US","EPOCH":"2022-12-10T05:47:40.381440","ELEMENT_SET_NO":"999","APOAPSIS":"548.302","MEAN_MOTION_DDOT":"0.0000000000000","MEAN_ANOMALY":"304.5509","PERIAPSIS":"546.182","REV_AT_EPOCH":"9582","MEAN_ELEMENT_THEORY":"SGP4","FILE":"3688140","MEAN_MOTION_DOT":"-0.00001924","NORAD_CAT_ID":"48030","ECCENTRICITY":"0.00015310","ARG_OF_PERICENTER":"55.5624","PERIOD":"95.593","TLE_LINE1":"1 48030U 21024BF  22344.24143960 -.00001924  00000-0 -11035-3 0  9999","BSTAR":"-0.00011035000000","CLASSIFICATION_TYPE":"U","GP_ID":"219931430","DECAY_DATE":null,"INCLINATION":"53.0554","TIME_SYSTEM":"UTC","SEMIMAJOR_AXIS":"6925.377","LAUNCH_DATE":"2021-03-24","REF_FRAME":"TEME","RA_OF_ASC_NODE":"258.3134","MEAN_MOTION":"15.06390679"},{"OBJECT_ID":"2021-024BG","SITE":"AFETR","OBJECT_NAME":"STARLINK-2267","TLE_LINE2":"2 48031  53.0555 141.3545 0001608  64.4503 295.6652 15.06397319 97501","ELEMENT_SET_NO":"999","MEAN_MOTION_DDOT":"0.0000000000000","APOAPSIS":"548.335","COUNTRY_CODE":"US","EPOCH":"2022-12-10T16:15:59.443776","OBJECT_TYPE":"PAYLOAD","RCS_SIZE":"MEDIUM","CENTER_NAME":"EARTH","EPHEMERIS_TYPE":"0","GP_ID":"219975264","BSTAR":"0.00003083300000","CLASSIFICATION_TYPE":"U","INCLINATION":"53.0555","DECAY_DATE":null,"RA_OF_ASC_NODE":"141.3545","MEAN_MOTION":"15.06397319","REF_FRAME":"TEME","TIME_SYSTEM":"UTC","LAUNCH_DATE":"2021-03-24","SEMIMAJOR_AXIS":"6925.357","NORAD_CAT_ID":"48031","FILE":"3688965","MEAN_MOTION_DOT":"0.00000178","MEAN_ELEMENT_THEORY":"SGP4","MEAN_ANOMALY":"295.6652","PERIAPSIS":"546.108","REV_AT_EPOCH":"9750","ARG_OF_PERICENTER":"64.4503","TLE_LINE1":"1 48031U 21024BG  22344.67777134  .00000178  00000-0  30833-4 0  9999","PERIOD":"95.592","ECCENTRICITY":"0.00016080"}];
